$$SOE
2460728.500000000, A.D. 2025-Feb-22 00:00:00.0000, 4.965600936038952E+08, 1.487468442042532E+08, 4.609294856844471E+07,
2460735.500000000, A.D. 2025-Mar-01 00:00:00.0000, 4.905762203100496E+08, 1.532695186725411E+08, 4.474139272878648E+07,
2460742.500000000, A.D. 2025-Mar-08 00:00:00.0000, 4.844188666315555E+08, 1.577379745974607E+08, 4.337401274675351E+07,
2460749.500000000, A.D. 2025-Mar-15 00:00:00.0000, 4.780855398263737E+08, 1.621491118893466E+08, 4.199087356971817E+07,
2460756.500000000, A.D. 2025-Mar-22 00:00:00.0000, 4.715736450638096E+08, 1.664996709340277E+08, 4.059204760232702E+07,
2460763.500000000, A.D. 2025-Mar-29 00:00:00.0000, 4.648804800418946E+08, 1.707862180081040E+08, 3.917761565933473E+07,
2460770.500000000, A.D. 2025-Apr-05 00:00:00.0000, 4.580032310780905E+08, 1.750051303535422E+08, 3.774766796129862E+07,
2460777.500000000, A.D. 2025-Apr-12 00:00:00.0000, 4.509389687439201E+08, 1.791525808722681E+08, 3.630230537564465E+07,
2460784.500000000, A.D. 2025-Apr-19 00:00:00.0000, 4.436846428563088E+08, 1.832245213966328E+08, 3.484164086859746E+07,
2460791.500000000, A.D. 2025-Apr-26 00:00:00.0000, 4.362370771010176E+08, 1.872166641470400E+08, 3.336580115017144E+07,
2460798.500000000, A.D. 2025-May-03 00:00:00.0000, 4.285929634102696E+08, 1.911244611837413E+08, 3.187492853104702E+07,
2460805.500000000, A.D. 2025-May-10 00:00:00.0000, 4.207488561378221E+08, 1.949430816185471E+08, 3.036918302184355E+07,
2460812.500000000, A.D. 2025-May-17 00:00:00.0000, 4.127011660911766E+08, 1.986673862667225E+08, 2.884874470615645E+07,
2460819.500000000, A.D. 2025-May-24 00:00:00.0000, 4.044461546288378E+08, 2.022918993640077E+08, 2.731381641179623E+07,
2460826.500000000, A.D. 2025-May-31 00:00:00.0000, 3.959799282884398E+08, 2.058107772893923E+08, 2.576462672008198E+07,
2460833.500000000, A.D. 2025-Jun-07 00:00:00.0000, 3.872984336089652E+08, 2.092177750694441E+08, 2.420143351051329E+07,
2460840.500000000, A.D. 2025-Jun-14 00:00:00.0000, 3.783974498686268E+08, 2.125062095026771E+08, 2.262452827724396E+07,
2460847.500000000, A.D. 2025-Jun-21 00:00:00.0000, 3.692725810757293E+08, 2.156689150597499E+08, 2.103424092709160E+07,
2460854.500000000, A.D. 2025-Jun-28 00:00:00.0000, 3.599192505003719E+08, 2.186981936534348E+08, 1.943094502143857E+07,
2460861.500000000, A.D. 2025-Jul-05 00:00:00.0000, 3.503326964368294E+08, 2.215857596516007E+08, 1.781506390291667E+07,
2460868.500000000, A.D. 2025-Jul-12 00:00:00.0000, 3.405079682780519E+08, 2.243226784130311E+08, 1.618707790156013E+07,
2460875.500000000, A.D. 2025-Jul-19 00:00:00.0000, 3.304399234505938E+08, 2.268992966976199E+08, 1.454753273851550E+07,
2460882.500000000, A.D. 2025-Jul-26 00:00:00.0000, 3.201232258898723E+08, 2.293051636308187E+08, 1.289704932414417E+07,
2460889.500000000, A.D. 2025-Aug-02 00:00:00.0000, 3.095523467354587E+08, 2.315289407523147E+08, 1.123633521417813E+07,
2460896.500000000, A.D. 2025-Aug-09 00:00:00.0000, 2.987215680716999E+08, 2.335582993689692E+08, 9.566198046982661E+06,
2460903.500000000, A.D. 2025-Aug-16 00:00:00.0000, 2.876249908373239E+08, 2.353798030564696E+08, 7.887561349229559E+06,
2460910.500000000, A.D. 2025-Aug-23 00:00:00.0000, 2.762565485673626E+08, 2.369787728449973E+08, 6.201483176123694E+06,
2460917.500000000, A.D. 2025-Aug-30 00:00:00.0000, 2.646100291003576E+08, 2.383391328564503E+08, 4.509178221988723E+06,
2460924.500000000, A.D. 2025-Sep-06 00:00:00.0000, 2.526791052115253E+08, 2.394432338861364E+08, 2.812044366922557E+06,
2460931.500000000, A.D. 2025-Sep-13 00:00:00.0000, 2.404573756493140E+08, 2.402716482757536E+08, 1.111694549857616E+06,
2460938.500000000, A.D. 2025-Sep-20 00:00:00.0000, 2.279384240417874E+08, 2.408029294717560E+08, -5.900052921436131E+05,
2460945.500000000, A.D. 2025-Sep-27 00:00:00.0000, 2.151159023131163E+08, 2.410133334708677E+08, -2.290890589404196E+06,
2460952.500000000, A.D. 2025-Oct-04 00:00:00.0000, 2.019836440464627E+08, 2.408764956922125E+08, -3.988442726388708E+06,
2460959.500000000, A.D. 2025-Oct-11 00:00:00.0000, 1.885358174308088E+08, 2.403630541019647E+08, -5.679721547567025E+06,
2460966.500000000, A.D. 2025-Oct-18 00:00:00.0000, 1.747671315846170E+08, 2.394402087338803E+08, -7.361282858471110E+06,
2460973.500000000, A.D. 2025-Oct-25 00:00:00.0000, 1.606731147031835E+08, 2.380712066471450E+08, -9.029077159550697E+06,
2460980.500000000, A.D. 2025-Nov-01 00:00:00.0000, 1.462504889808055E+08, 2.362147401230747E+08, -1.067832482071944E+07,
2460987.500000000, A.D. 2025-Nov-08 00:00:00.0000, 1.314976763644777E+08, 2.338242451058609E+08, -1.230336162224953E+07,
2460994.500000000, A.D. 2025-Nov-15 00:00:00.0000, 1.164154818820900E+08, 2.308470872708930E+08, -1.389744700730178E+07,
2461001.500000000, A.D. 2025-Nov-22 00:00:00.0000, 1.010080188567832E+08, 2.272236261444607E+08, -1.545252547687699E+07,
2461008.500000000, A.D. 2025-Nov-29 00:00:00.0000, 8.528396345955536E+07, 2.228861558568420E+08, -1.695892925461533E+07,
2461015.500000000, A.D. 2025-Dec-06 00:00:00.0000, 6.925825590430093E+07, 2.177577352375748E+08, -1.840500803523125E+07,
2461022.500000000, A.D. 2025-Dec-13 00:00:00.0000, 5.295441032990314E+07, 2.117509467001005E+08, -1.977667043915855E+07,
2461029.500000000, A.D. 2025-Dec-20 00:00:00.0000, 3.640765128719594E+07, 2.047666830550038E+08, -2.105682182765356E+07,
2461036.500000000, A.D. 2025-Dec-27 00:00:00.0000, 1.966915046048412E+07, 1.966931608284197E+08, -2.222468708451056E+07,
2461043.500000000, A.D. 2026-Jan-03 00:00:00.0000, 2.811691434861291E+06, 1.874055229401743E+08, -2.325502113995360E+07,
2461050.500000000, A.D. 2026-Jan-10 00:00:00.0000, -1.406289429167882E+07, 1.767666683533879E+08, -2.411724290157264E+07,
2461057.500000000, A.D. 2026-Jan-17 00:00:00.0000, -3.081428344027194E+07, 1.646303707553697E+08, -2.477459550647824E+07,
2461064.500000000, A.D. 2026-Jan-24 00:00:00.0000, -4.725235978995086E+07, 1.508483369637613E+08, -2.518356051186590E+07,
2461071.500000000, A.D. 2026-Jan-31 00:00:00.0000, -6.312514782992284E+07, 1.352835123437470E+08, -2.529395939299038E+07,
2461078.500000000, A.D. 2026-Feb-07 00:00:00.0000, -7.810892503495321E+07, 1.178322705378838E+08, -2.505045912544468E+07,
2461085.500000000, A.D. 2026-Feb-14 00:00:00.0000, -9.180637576362368E+07, 9.845716440179780E+07, -2.439645872184115E+07,
2461092.500000000, A.D. 2026-Feb-21 00:00:00.0000, -1.037617932809842E+08, 7.722808141776712E+07, -2.328126080289320E+07,
2461099.500000000, A.D. 2026-Feb-28 00:00:00.0000, -1.135026544911119E+08, 5.436182562124822E+07, -2.167048829142059E+07,
2461106.500000000, A.D. 2026-Mar-07 00:00:00.0000, -1.206093234890360E+08, 3.024085125957704E+07, -1.955754902491711E+07,
2461113.500000000, A.D. 2026-Mar-14 00:00:00.0000, -1.247973029590073E+08, 5.390121283356034E+06, -1.697146861965058E+07,
2461120.500000000, A.D. 2026-Mar-21 00:00:00.0000, -1.259793599329066E+08, -1.959323303812876E+07, -1.397614696567542E+07,
2461127.500000000, A.D. 2026-Mar-28 00:00:00.0000, -1.242770899546030E+08, -4.413483663720568E+07, -1.065989667446842E+07,
2461134.500000000, A.D. 2026-Apr-04 00:00:00.0000, -1.199780597279096E+08, -6.776382161492762E+07, -7.119651039788425E+06,
2461141.500000000, A.D. 2026-Apr-11 00:00:00.0000, -1.134634697483568E+08, -9.015242066462429E+07, -3.446519385207582E+06,
2461148.500000000, A.D. 2026-Apr-18 00:00:00.0000, -1.051383578122186E+08, -1.111137936037011E+08, 2.830512697639540E+05,
2461155.500000000, A.D. 2026-Apr-25 00:00:00.0000, -9.538315449542096E+07, -1.305748623512611E+08, 4.010173677975550E+06,
2461162.500000000, A.D. 2026-May-02 00:00:00.0000, -8.452906678210814E+07, -1.485421554861979E+08, 7.692426060858443E+06,
2461169.500000000, A.D. 2026-May-09 00:00:00.0000, -7.285103081365201E+07, -1.650715408694056E+08, 1.130095498081899E+07,
2461176.500000000, A.D. 2026-May-16 00:00:00.0000, -6.057061894907804E+07, -1.802456477938210E+08, 1.481724851545558E+07,
2461183.500000000, A.D. 2026-May-23 00:00:00.0000, -4.786324280140569E+07, -1.941587523920800E+08, 1.823028990428288E+07,
2461190.500000000, A.D. 2026-May-30 00:00:00.0000, -3.486636201062310E+07, -2.069074468580174E+08, 2.153430986437846E+07,
2461197.500000000, A.D. 2026-Jun-06 00:00:00.0000, -2.168712357142073E+07, -2.185853047263447E+08, 2.472711711412274E+07,
2461204.500000000, A.D. 2026-Jun-13 00:00:00.0000, -8.408849199017972E+06, -2.292801146899105E+08, 2.780890233541380E+07,
2461211.500000000, A.D. 2026-Jun-20 00:00:00.0000, 4.903712423764625E+06, -2.390726787290198E+08, 3.078140051293588E+07,
2461218.500000000, A.D. 2026-Jun-27 00:00:00.0000, 1.820024223058392E+07, -2.480365202859140E+08, 3.364731299310339E+07,
2461225.500000000, A.D. 2026-Jul-04 00:00:00.0000, 3.144162789298791E+07, -2.562380940404728E+08, 3.640991305597001E+07,
2461232.500000000, A.D. 2026-Jul-11 00:00:00.0000, 4.459747433507676E+07, -2.637372498812670E+08, 3.907277931917091E+07,
2461239.500000000, A.D. 2026-Jul-18 00:00:00.0000, 5.764418542458849E+07, -2.705878056712278E+08, 4.163961745650036E+07,
2461246.500000000, A.D. 2026-Jul-25 00:00:00.0000, 7.056348517503251E+07, -2.768381462655983E+08, 4.411414262178958E+07,
2461253.500000000, A.D. 2026-Aug-01 00:00:00.0000, 8.334127528252077E+07, -2.825318041681424E+08, 4.650000345166610E+07,
2461260.500000000, A.D. 2026-Aug-08 00:00:00.0000, 9.596674979760599E+07, -2.877079996022425E+08, 4.880073444333013E+07,
2461267.500000000, A.D. 2026-Aug-15 00:00:00.0000, 1.084317068460089E+08, -2.924021302454690E+08, 5.101972762952269E+07,
2461274.500000000, A.D. 2026-Aug-22 00:00:00.0000, 1.207300107521591E+08, -2.966462073775417E+08, 5.316021746802032E+07,
2461281.500000000, A.D. 2026-Aug-29 00:00:00.0000, 1.328571675188747E+08, -3.004692416778537E+08, 5.522527473358764E+07,
2461288.500000000, A.D. 2026-Sep-05 00:00:00.0000, 1.448099894459929E+08, -3.038975853220053E+08, 5.721780601347832E+07,
2461295.500000000, A.D. 2026-Sep-12 00:00:00.0000, 1.565863313137816E+08, -3.069552324515579E+08, 5.914055674673688E+07,
$$EOE